[{"OBJECT_NAME":"IRIDIUM 174","OBJECT_ID":"2023-068U","EPOCH":"2026-03-09T22:04:44.769504","MEAN_MOTION":14.7225064,"ECCENTRICITY":0.00025981,"INCLINATION":86.6101,"RA_OF_ASC_NODE":35.1661,"ARG_OF_PERICENTER":80.0805,"MEAN_ANOMALY":280.0705,"EPHEMERIS_TYPE":0,"CLASSIFICATION_TYPE":"U","NORAD_CAT_ID":56728,"ELEMENT_SET_NO":999,"REV_AT_EPOCH":15141,"BSTAR":0.00022876362,"MEAN_MOTION_DOT":1.467e-5,"MEAN_MOTION_DDOT":0},{"OBJECT_NAME":"CZ-6A DEB","OBJECT_ID":"2024-140YA","EPOCH":"2026-03-09T14:26:17.481408","MEAN_MOTION":14.80843651,"ECCENTRICITY":0.009905,"INCLINATION":89.0273,"RA_OF_ASC_NODE":282.6505,"ARG_OF_PERICENTER":174.5462,"MEAN_ANOMALY":185.6867,"EPHEMERIS_TYPE":0,"CLASSIFICATION_TYPE":"U","NORAD_CAT_ID":61409,"ELEMENT_SET_NO":999,"REV_AT_EPOCH":8023,"BSTAR":0.0018081,"MEAN_MOTION_DOT":0.00015217,"MEAN_MOTION_DDOT":0}]
